CCSDS_OMM_VERS = 2.0
CREATION_DATE  = 
ORIGINATOR     = 

OBJECT_NAME    = UNKNOWN
OBJECT_ID      = 
CENTER_NAME    = EARTH
REF_FRAME      = TEME
TIME_SYSTEM    = UTC
MEAN_ELEMENT_THEORY = SGP/SGP4

EPOCH          = 2025-11-18T00:20:12.234336
MEAN_MOTION    = 14.34304596
ECCENTRICITY   = .0135422
INCLINATION    = 73.2823
RA_OF_ASC_NODE = 229.1077
ARG_OF_PERICENTER = 356.7035
MEAN_ANOMALY   = 18.7719

EPHEMERIS_TYPE = 0
CLASSIFICATION_TYPE = U
NORAD_CAT_ID   = 82524
ELEMENT_SET_NO = 999
REV_AT_EPOCH   = 57349
BSTAR          = .36611E-2
MEAN_MOTION_DOT = .11387E-3
MEAN_MOTION_DDOT = 0

CCSDS_OMM_VERS = 2.0
CREATION_DATE  = 
ORIGINATOR     = 

OBJECT_NAME    = UNKNOWN
OBJECT_ID      = 
CENTER_NAME    = EARTH
REF_FRAME      = TEME
TIME_SYSTEM    = UTC
MEAN_ELEMENT_THEORY = SGP/SGP4

EPOCH          = 2025-11-23T04:39:52.682400
MEAN_MOTION    = 13.41078967
ECCENTRICITY   = .0236932
INCLINATION    = 99.7939
RA_OF_ASC_NODE = 51.2096
ARG_OF_PERICENTER = 287.9491
MEAN_ANOMALY   = 101.4401

EPHEMERIS_TYPE = 0
CLASSIFICATION_TYPE = U
NORAD_CAT_ID   = 82529
ELEMENT_SET_NO = 999
REV_AT_EPOCH   = 58712
BSTAR          = .98393E-3
MEAN_MOTION_DOT = .597E-5
MEAN_MOTION_DDOT = 0

CCSDS_OMM_VERS = 2.0
CREATION_DATE  = 
ORIGINATOR     = 

OBJECT_NAME    = UNKNOWN
OBJECT_ID      = 
CENTER_NAME    = EARTH
REF_FRAME      = TEME
TIME_SYSTEM    = UTC
MEAN_ELEMENT_THEORY = SGP/SGP4

EPOCH          = 2025-11-24T01:41:36.281184
MEAN_MOTION    = 13.90568170
ECCENTRICITY   = .0012331
INCLINATION    = 99.9870
RA_OF_ASC_NODE = 269.2469
ARG_OF_PERICENTER = 355.8181
MEAN_ANOMALY   = 67.8977

EPHEMERIS_TYPE = 0
CLASSIFICATION_TYPE = U
NORAD_CAT_ID   = 82560
ELEMENT_SET_NO = 999
REV_AT_EPOCH   = 60927
BSTAR          = .15747E-2
MEAN_MOTION_DOT = .1912E-4
MEAN_MOTION_DDOT = 0

CCSDS_OMM_VERS = 2.0
CREATION_DATE  = 
ORIGINATOR     = 

OBJECT_NAME    = UNKNOWN
OBJECT_ID      = 
CENTER_NAME    = EARTH
REF_FRAME      = TEME
TIME_SYSTEM    = UTC
MEAN_ELEMENT_THEORY = SGP/SGP4

EPOCH          = 2025-11-20T10:02:05.750304
MEAN_MOTION    = 14.35629103
ECCENTRICITY   = .00964
INCLINATION    = 66.7709
RA_OF_ASC_NODE = 206.7605
ARG_OF_PERICENTER = 322.8102
MEAN_ANOMALY   = 36.6347

EPHEMERIS_TYPE = 0
CLASSIFICATION_TYPE = U
NORAD_CAT_ID   = 82597
ELEMENT_SET_NO = 999
REV_AT_EPOCH   = 62577
BSTAR          = .61467E-3
MEAN_MOTION_DOT = .1783E-4
MEAN_MOTION_DDOT = 0

CCSDS_OMM_VERS = 2.0
CREATION_DATE  = 
ORIGINATOR     = 

OBJECT_NAME    = UNKNOWN
OBJECT_ID      = 
CENTER_NAME    = EARTH
REF_FRAME      = TEME
TIME_SYSTEM    = UTC
MEAN_ELEMENT_THEORY = SGP/SGP4

EPOCH          = 2025-11-23T13:03:11.162880
MEAN_MOTION    = 14.49358368
ECCENTRICITY   = .0039677
INCLINATION    = 74.0270
RA_OF_ASC_NODE = 279.6670
ARG_OF_PERICENTER = 229.4421
MEAN_ANOMALY   = 130.3283

EPHEMERIS_TYPE = 0
CLASSIFICATION_TYPE = U
NORAD_CAT_ID   = 82617
ELEMENT_SET_NO = 999
REV_AT_EPOCH   = 63404
BSTAR          = .19906E-3
MEAN_MOTION_DOT = .74E-5
MEAN_MOTION_DDOT = 0

CCSDS_OMM_VERS = 2.0
CREATION_DATE  = 
ORIGINATOR     = 

OBJECT_NAME    = UNKNOWN
OBJECT_ID      = 
CENTER_NAME    = EARTH
REF_FRAME      = TEME
TIME_SYSTEM    = UTC
MEAN_ELEMENT_THEORY = SGP/SGP4

EPOCH          = 2025-11-19T19:16:17.364864
MEAN_MOTION    = 13.16253151
ECCENTRICITY   = .0008339
INCLINATION    = 82.4738
RA_OF_ASC_NODE = 264.9882
ARG_OF_PERICENTER = 144.1062
MEAN_ANOMALY   = 245.1755

EPHEMERIS_TYPE = 0
CLASSIFICATION_TYPE = U
NORAD_CAT_ID   = 82627
ELEMENT_SET_NO = 999
REV_AT_EPOCH   = 57581
BSTAR          = .17039E-2
MEAN_MOTION_DOT = .661E-5
MEAN_MOTION_DDOT = 0

CCSDS_OMM_VERS = 2.0
CREATION_DATE  = 
ORIGINATOR     = 

OBJECT_NAME    = UNKNOWN
OBJECT_ID      = 
CENTER_NAME    = EARTH
REF_FRAME      = TEME
TIME_SYSTEM    = UTC
MEAN_ELEMENT_THEORY = SGP/SGP4

EPOCH          = 2025-11-25T12:13:27.945408
MEAN_MOTION    = 14.07108311
ECCENTRICITY   = .0136058
INCLINATION    = 98.9729
RA_OF_ASC_NODE = 240.1698
ARG_OF_PERICENTER = 285.9088
MEAN_ANOMALY   = 72.7123

EPHEMERIS_TYPE = 0
CLASSIFICATION_TYPE = U
NORAD_CAT_ID   = 82642
ELEMENT_SET_NO = 999
REV_AT_EPOCH   = 61371
BSTAR          = .14625E-2
MEAN_MOTION_DOT = .2616E-4
MEAN_MOTION_DDOT = 0

CCSDS_OMM_VERS = 2.0
CREATION_DATE  = 
ORIGINATOR     = 

OBJECT_NAME    = UNKNOWN
OBJECT_ID      = 
CENTER_NAME    = EARTH
REF_FRAME      = TEME
TIME_SYSTEM    = UTC
MEAN_ELEMENT_THEORY = SGP/SGP4

EPOCH          = 2025-11-25T03:31:32.573856
MEAN_MOTION    = 14.20072666
ECCENTRICITY   = .0211856
INCLINATION    = 98.1757
RA_OF_ASC_NODE = 39.4159
ARG_OF_PERICENTER = 87.6038
MEAN_ANOMALY   = 274.9377

EPHEMERIS_TYPE = 0
CLASSIFICATION_TYPE = U
NORAD_CAT_ID   = 82683
ELEMENT_SET_NO = 999
REV_AT_EPOCH   = 45977
BSTAR          = .57762E-3
MEAN_MOTION_DOT = .1502E-4
MEAN_MOTION_DDOT = 0

CCSDS_OMM_VERS = 2.0
CREATION_DATE  = 
ORIGINATOR     = 

OBJECT_NAME    = UNKNOWN
OBJECT_ID      = 
CENTER_NAME    = EARTH
REF_FRAME      = TEME
TIME_SYSTEM    = UTC
MEAN_ELEMENT_THEORY = SGP/SGP4

EPOCH          = 2025-11-25T04:09:08.423424
MEAN_MOTION    = 13.69368939
ECCENTRICITY   = .0042701
INCLINATION    = 100.5313
RA_OF_ASC_NODE = 291.0730
ARG_OF_PERICENTER = 62.6837
MEAN_ANOMALY   = 297.8644

EPHEMERIS_TYPE = 0
CLASSIFICATION_TYPE = U
NORAD_CAT_ID   = 82693
ELEMENT_SET_NO = 999
REV_AT_EPOCH   = 55135
BSTAR          = .40508E-2
MEAN_MOTION_DOT = .3494E-4
MEAN_MOTION_DDOT = 0

CCSDS_OMM_VERS = 2.0
CREATION_DATE  = 
ORIGINATOR     = 

OBJECT_NAME    = UNKNOWN
OBJECT_ID      = 
CENTER_NAME    = EARTH
REF_FRAME      = TEME
TIME_SYSTEM    = UTC
MEAN_ELEMENT_THEORY = SGP/SGP4

EPOCH          = 2025-11-24T21:39:32.941440
MEAN_MOTION    = 13.29350172
ECCENTRICITY   = .0684198
INCLINATION    = 61.6125
RA_OF_ASC_NODE = 198.2302
ARG_OF_PERICENTER = 282.9752
MEAN_ANOMALY   = 69.5753

EPHEMERIS_TYPE = 0
CLASSIFICATION_TYPE = U
NORAD_CAT_ID   = 82698
ELEMENT_SET_NO = 999
REV_AT_EPOCH   = 53600
BSTAR          = .87243E-3
MEAN_MOTION_DOT = .1399E-4
MEAN_MOTION_DDOT = 0

CCSDS_OMM_VERS = 2.0
CREATION_DATE  = 
ORIGINATOR     = 

OBJECT_NAME    = UNKNOWN
OBJECT_ID      = 
CENTER_NAME    = EARTH
REF_FRAME      = TEME
TIME_SYSTEM    = UTC
MEAN_ELEMENT_THEORY = SGP/SGP4

EPOCH          = 2025-11-24T12:00:01.586304
MEAN_MOTION    = 12.90536138
ECCENTRICITY   = .0063821
INCLINATION    = 102.1685
RA_OF_ASC_NODE = 169.9029
ARG_OF_PERICENTER = 323.1035
MEAN_ANOMALY   = 36.5674

EPHEMERIS_TYPE = 0
CLASSIFICATION_TYPE = U
NORAD_CAT_ID   = 82708
ELEMENT_SET_NO = 999
REV_AT_EPOCH   = 52116
BSTAR          = .426E-2
MEAN_MOTION_DOT = .1079E-4
MEAN_MOTION_DDOT = 0

CCSDS_OMM_VERS = 2.0
CREATION_DATE  = 
ORIGINATOR     = 

OBJECT_NAME    = UNKNOWN
OBJECT_ID      = 
CENTER_NAME    = EARTH
REF_FRAME      = TEME
TIME_SYSTEM    = UTC
MEAN_ELEMENT_THEORY = SGP/SGP4

EPOCH          = 2025-11-17T06:43:41.776896
MEAN_MOTION    = 12.17733009
ECCENTRICITY   = .082992
INCLINATION    = 67.9666
RA_OF_ASC_NODE = 189.9070
ARG_OF_PERICENTER = 28.3980
MEAN_ANOMALY   = 335.9760

EPHEMERIS_TYPE = 0
CLASSIFICATION_TYPE = U
NORAD_CAT_ID   = 82729
ELEMENT_SET_NO = 999
REV_AT_EPOCH   = 53210
BSTAR          = .29051E-2
MEAN_MOTION_DOT = .829E-5
MEAN_MOTION_DDOT = 0

