UNKNOWN                 
1 82524U          25322.01403049  .00011387  00000+0  36611-2 0  9994
2 82524  73.2823 229.1077 0135422 356.7035  18.7719 14.34304596573492
UNKNOWN                 
1 82529U          25327.19435975  .00000597  00000+0  98393-3 0  9993
2 82529  99.7939  51.2096 0236932 287.9491 101.4401 13.41078967587122
UNKNOWN                 
1 82560U          25328.07055881  .00001912  00000+0  15747-2 0  9993
2 82560  99.9870 269.2469 0012331 355.8181  67.8977 13.90568170609272
UNKNOWN                 
1 82597U          25324.41812211  .00001783  00000+0  61467-3 0  9992
2 82597  66.7709 206.7605 0096400 322.8102  36.6347 14.35629103625771
UNKNOWN                 
1 82617U          25327.54387920  .00000740  00000+0  19906-3 0  9999
2 82617  74.0270 279.6670 0039677 229.4421 130.3283 14.49358368634047
UNKNOWN                 
1 82627U          25323.80297876  .00000661  00000+0  17039-2 0  9991
2 82627  82.4738 264.9882 0008339 144.1062 245.1755 13.16253151575812
UNKNOWN                 
1 82642U          25329.50935122  .00002616  00000+0  14625-2 0  9994
2 82642  98.9729 240.1698 0136058 285.9088  72.7123 14.07108311613717
UNKNOWN                 
1 82683U          25329.14690479  .00001502  00000+0  57762-3 0  9995
2 82683  98.1757  39.4159 0211856  87.6038 274.9377 14.20072666459777
UNKNOWN                 
1 82693U          25329.17301416  .00003494  00000+0  40508-2 0  9990
2 82693 100.5313 291.0730 0042701  62.6837 297.8644 13.69368939551357
UNKNOWN                 
1 82698U          25328.90246460  .00001399  00000+0  87243-3 0  9992
2 82698  61.6125 198.2302 0684198 282.9752  69.5753 13.29350172536004
UNKNOWN                 
1 82708U          25328.50001836  .00001079  00000+0  42600-2 0  9998
2 82708 102.1685 169.9029 0063821 323.1035  36.5674 12.90536138521167
UNKNOWN                 
1 82729U          25321.28034464  .00000829  00000+0  29051-2 0  9999
2 82729  67.9666 189.9070 0829920  28.3980 335.9760 12.17733009532101
